{
    "links": {
        "self": "http://www.neowsapp.com/rest/v1/neo/54054689?api_key=iIulBulltgU6a56xZRHN4H3l9WmuAYTsLGpBGhQ2"
    },
    "id": "54054689",
    "neo_reference_id": "54054689",
    "name": "(2020 SX5)",
    "designation": "2020 SX5",
    "nasa_jpl_url": "http://ssd.jpl.nasa.gov/sbdb.cgi?sstr=54054689",
    "absolute_magnitude_h": 25.527,
    "estimated_diameter": {
        "kilometers": {
            "estimated_diameter_min": 0.0208523486,
            "estimated_diameter_max": 0.046627269
        },
        "meters": {
            "estimated_diameter_min": 20.8523485978,
            "estimated_diameter_max": 46.6272689553
        },
        "miles": {
            "estimated_diameter_min": 0.0129570447,
            "estimated_diameter_max": 0.0289728327
        },
        "feet": {
            "estimated_diameter_min": 68.4132193737,
            "estimated_diameter_max": 152.9766090793
        }
    },
    "is_potentially_hazardous_asteroid": false,
    "close_approach_data": [
        {
            "close_approach_date": "2008-07-18",
            "close_approach_date_full": "2008-Jul-18 17:24",
            "epoch_date_close_approach": 1216401840000,
            "relative_velocity": {
                "kilometers_per_second": "5.0937304384",
                "kilometers_per_hour": "18337.4295780765",
                "miles_per_hour": "11394.1656175554"
            },
            "miss_distance": {
                "astronomical": "0.0551588054",
                "lunar": "21.4567753006",
                "kilometers": "8251639.799584498",
                "miles": "5127331.2139541524"
            },
            "orbiting_body": "Mars"
        },
        {
            "close_approach_date": "2015-10-06",
            "close_approach_date_full": "2015-Oct-06 12:28",
            "epoch_date_close_approach": 1444134480000,
            "relative_velocity": {
                "kilometers_per_second": "12.1933381122",
                "kilometers_per_hour": "43896.0172039218",
                "miles_per_hour": "27275.2780231813"
            },
            "miss_distance": {
                "astronomical": "0.2338933331",
                "lunar": "90.9845065759",
                "kilometers": "34989944.438960497",
                "miles": "21741743.2963369786"
            },
            "orbiting_body": "Earth"
        },
        {
            "close_approach_date": "2020-09-16",
            "close_approach_date_full": "2020-Sep-16 00:50",
            "epoch_date_close_approach": 1600217400000,
            "relative_velocity": {
                "kilometers_per_second": "5.6052972197",
                "kilometers_per_hour": "20179.0699908055",
                "miles_per_hour": "12538.4893506758"
            },
            "miss_distance": {
                "astronomical": "0.0602044813",
                "lunar": "23.4195432257",
                "kilometers": "9006462.166934831",
                "miles": "5596356.0840534278"
            },
            "orbiting_body": "Earth"
        }
    ],
    "orbital_data": {
        "orbit_id": "3",
        "orbit_determination_date": "2020-10-12 07:29:11",
        "first_observation_date": "2020-09-25",
        "last_observation_date": "2020-10-12",
        "data_arc_in_days": 17,
        "observations_used": 22,
        "orbit_uncertainty": "8",
        "minimum_orbit_intersection": ".0582428",
        "jupiter_tisserand_invariant": "4.709",
        "epoch_osculation": "2459120.5",
        "eccentricity": ".2809826129828287",
        "semi_major_axis": "1.398898902370432",
        "inclination": "6.180662260171408",
        "ascending_node_longitude": "21.28476774911569",
        "orbital_period": "604.3352419705042",
        "perihelion_distance": "1.005832633483577",
        "perihelion_argument": "303.3972484899605",
        "aphelion_distance": "1.791965171257287",
        "perihelion_time": "2459081.466832569538",
        "mean_anomaly": "23.25189613160464",
        "mean_motion": ".5956958571970399",
        "equinox": "J2000",
        "orbit_class": {
            "orbit_class_type": "APO",
            "orbit_class_description": "Near-Earth asteroid orbits which cross the Earth’s orbit similar to that of 1862 Apollo",
            "orbit_class_range": "a (semi-major axis) > 1.0 AU; q (perihelion) < 1.017 AU"
        }
    },
    "is_sentry_object": false
}